0 TIROS N DEB
1 11062U 78096C   13281.83152384  .00003871  00000-0  53929-3 0  6356
2 11062 098.9053 305.0508 0003497 088.9796 015.3686 14.78436117843621
0 TIROS N DEB
1 11062U 78096C   13283.17836708  .00005773  00000-0  79944-3 0  6363
2 11062 098.9055 306.5392 0003414 085.4494 343.1085 14.78456017843824
0 TIROS N DEB
1 11062U 78096C   13287.52725524  .00005318  00000-0  73660-3 0  6385
2 11062 098.9048 311.3467 0003286 076.3001 085.5670 14.78493520844461
0 TIROS N DEB
1 11062U 78096C   13289.13811103  .00008232  00000-0  11344-2 0  6392
2 11062 098.9041 313.1276 0003197 072.7365 018.0467 14.78515772844702
0 TIROS N DEB
1 11062U 78096C   13291.16465755  .00005983  00000-0  82659-3 0  6406
2 11062 098.9034 315.3675 0003163 068.6885 002.4188 14.78540876845009
0 TIROS N DEB
1 11062U 78096C   13293.19395818  .00006174  00000-0  85232-3 0  6417
2 11062 098.9028 317.6104 0003011 063.9484 002.3136 14.78559192845305
0 TIROS N DEB
1 11062U 78096C   13295.51218909  .00007806  00000-0  10744-2 0  6429
2 11062 098.9033 320.1725 0002952 059.0509 099.5408 14.78585426845642
